0 COSMOS 2251 DEB
1 36622U 93036BEL 13283.66376445  .00001703  00000-0  36678-3 0  2883
2 36622 074.0260 033.4881 0095439 201.5749 158.1653 14.56476355191584
0 COSMOS 2251 DEB
1 36622U 93036BEL 13284.96881547  .00001780  00000-0  38303-3 0  2894
2 36622 074.0260 031.0091 0095513 198.0764 161.7093 14.56482757191773
0 COSMOS 2251 DEB
1 36622U 93036BEL 13287.57891667  .00001935  00000-0  41605-3 0  2901
2 36622 074.0278 026.0514 0094703 193.0399 166.8686 14.56495639192155
0 COSMOS 2251 DEB
1 36622U 93036BEL 13290.60110730  .00002071  00000-0  44484-3 0  2915
2 36622 074.0267 020.3146 0094173 186.5062 173.5122 14.56510111192597
0 COSMOS 2251 DEB
1 36622U 93036BEL 13291.56270455  .00002284  00000-0  48980-3 0  2924
2 36622 074.0290 018.4917 0094166 184.5664 175.5500 14.56519128192730
0 COSMOS 2251 DEB
1 36622U 93036BEL 13293.55456194  .00002386  00000-0  50858-3 0  2932
2 36622 074.0337 014.7112 0098256 179.8906 180.3027 14.56530760193024
0 COSMOS 2251 DEB
1 36622U 93036BEL 13295.88982429  .00002491  00000-0  53136-3 0  2945
2 36622 074.0311 010.2771 0096927 175.0368 185.1784 14.56544184193366
